#cP2017 10 20  0  0  0.00000000      96 ORBIT IGS14 HLM  IGS
## 1971 432000.00000000   900.00000000 58046 0.0000000000000
+   32   G01G02G03G04G05G06G07G08G09G10G11G12G13G14G15G16G17
+        G18G19G20G21G22G23G24G25G26G27G28G29G30G31G32  0  0
+          0  0  0  0  0  0  0  0  0  0  0  0  0  0  0  0  0
+          0  0  0  0  0  0  0  0  0  0  0  0  0  0  0  0  0
+          0  0  0  0  0  0  0  0  0  0  0  0  0  0  0  0  0
++         2  2  2  0  2  2  2  2  2  2  2  2  2  2  2  2  2
++         2  2  2  2  2  2  2  2  2  3  2  2  2  2  2  0  0
++         0  0  0  0  0  0  0  0  0  0  0  0  0  0  0  0  0
++         0  0  0  0  0  0  0  0  0  0  0  0  0  0  0  0  0
++         0  0  0  0  0  0  0  0  0  0  0  0  0  0  0  0  0
%c G  cc GPS ccc cccc cccc cccc cccc ccccc ccccc ccccc ccccc
%c cc cc ccc ccc cccc cccc cccc cccc ccccc ccccc ccccc ccccc
%f  1.2500000  1.025000000  0.00000000000  0.000000000000000
%f  0.0000000  0.000000000  0.00000000000  0.000000000000000
%i    0    0    0    0      0      0      0      0         0
%i    0    0    0    0      0      0      0      0         0
/* RAPID ORBIT COMBINATION FROM WEIGHTED AVERAGE OF:        
/* cod emr esa gfz jpl ngs sio usn whu                      
/* REFERENCED TO IGS TIME (IGST) AND TO WEIGHTED MEAN POLE: 
/* PCV:IGS14_1967 OL/AL:FES2004  NONE     Y  ORB:CMB CLK:CMB
*  2017 10 20 23 15  0.00000000
PG01 -14465.817042   3938.010683  21783.619570     -5.367551  7  7  6 131       
PG02  14258.615618  18787.354766 -11982.286924    301.393244 11  5  7 112       
PG03 -21985.443344  12010.899558   8735.468385    -53.329130  7 10  9 119       
PG04 -19333.414189 -13385.852044 -13030.931593 999999.999999
PG05  15548.410098   5871.402217 -20853.889305    -25.365690  6  9  4 127       
PG06   6951.788227  25587.244808  -1467.623137    405.624450  6  3  5  95       
PG07  -7690.865109  19110.666475 -16313.134049    290.549692  5  8  6  81       
PG08 -25880.714523  -5294.013510   3325.683620    -77.715805  8  9 10 121       
PG09 -14049.632578  10585.370446 -19932.611826    460.683843  5  7  7  67       
PG10   5429.219027 -20409.174151  16049.381895     93.275873  5  4  6 130       
PG11 -18306.399353   -108.427315  18641.497793   -722.344149  6  5  6 101       
PG12  22155.806838  -8043.388256  11883.127571    368.287497  9  8  5 114       
PG13  23359.001288  12350.495422  -2682.745206    -93.013664  9  3  8  71       
PG14 -12276.052170 -17195.993507  16475.748033    -86.694890  8  5  8 108       
PG15  26155.786880   2011.899137   5121.334799   -356.747374  6  6  8 111       
PG16 -14874.037191  -6154.712993 -21339.998493     36.831214  9  7  6  88       
PG17   2822.950314  16163.782024  21289.557373   -149.737242  4  6  3  67       
PG18  13339.700736 -21778.324024   7531.506078    631.653660  7  6  6 136       
PG19  11169.854122  16892.022031  16784.857469   -480.117512  5  5  6  75       
PG20  21264.269502  -9535.589494 -12871.184277    490.322542  9  8    118       
PG21   4110.399747 -22028.236308 -13414.112776   -469.419327  8  8  6 112       
PG22 -21284.433132   5370.176516  15213.515914   -161.656697  7 10  4 123       
PG23 -22795.750901   3290.283749 -13333.240805   -218.239656  9  9  8  94       
PG24  15711.724200  -1036.602452  21318.433425    -41.162275  7  6  5 117       
PG25  19809.231245 -17486.912655    807.584925   -476.034899  7  6  7 127       
PG26  -6517.203291 -14471.236703 -21276.018623   -390.209352  9  8  2  88       
PG27 -22072.719313 -12540.321362  -8248.373231    339.329477 14  9 10 140       
PG28  -9935.813948  20158.560773  14796.068142    655.729127  7  6  7  77       
PG29  18298.383685  -6141.655683 -18248.751588    548.617865  6  5  5 112       
PG30  -1173.830762  25379.166460  -7472.872509    133.427875  6  3  6 104       
PG31  -7869.470318 -24757.392577  -4311.396927    167.528266  6  6 10  90       
PG32  -6225.474658 -16488.650101  19912.281938   -515.377482  9  6  7  96       
*  2017 10 20 23 30  0.00000000
PG01 -15093.431248   1504.122403  21686.439702     -5.369542  7  7  7 132       
PG02  14417.713340  20096.287118  -9552.665518    301.384595 11  5  7 115       
PG03 -21331.459123  11038.585766  11270.896661    -53.324626  7 10  8 105       
PG04 -17759.013624 -13278.822367 -15181.345716 999999.999999
PG05  13909.103654   7625.041751 -21420.470683    -25.364668  6  9  5 131       
PG06   6726.247523  25652.993656   1403.579094    405.626423  6  3  5 107       
PG07  -8342.630546  17192.733740 -18054.285103    290.545059  5  8  6  68       
PG08 -26027.673453  -5565.115848    472.241482    -77.716794  9  9 11 119       
PG09 -16150.284608   9908.749864 -18646.582603    460.688605  5  8  8  80       
PG10   6784.053870 -21485.405117  13982.129444     93.283581  5  5  6 127       
PG11 -19482.489666  -1965.156906  17329.160812   -722.345691  7  4  6 100       
PG12  21116.121189  -6921.366126  14235.707351    368.285914  8  8  5 120       
PG13  22851.405081  12390.380936  -5506.577917    -93.014066 10  3  8  85       
PG14 -10412.426709 -16675.939971  18216.193673    -86.695482  9  5  8 108       
PG15  26536.690451   2402.088912   2395.366673   -356.747865  8  7  8 107       
PG16 -13025.216738  -7743.264337 -21990.008420     36.830970  8  7  6 104       
PG17    540.036179  15457.572612  21981.781301   -149.735383  5  7  2  75       
PG18  14032.252422 -22025.395862   4857.661291    631.654032  8  6  7 137       
PG19   9182.614817  16286.238464  18493.809021   -480.115674  5  5  6  90       
PG20  20462.023871  -8149.629684 -14978.679483    490.323678  8  8    126       
PG21   4878.788488 -20398.203055 -15466.024847   -469.416463  8  8  6 121       
PG22 -20227.804389   3877.250493  17026.138765   -161.668160  6 11  4 111       
PG23 -24111.458056   2711.469047 -11030.392419   -218.239610  9  9  8  87       
PG24  16372.276372   1305.344057  20826.333219    -41.162918  7  7  6 113       
PG25  19772.716314 -17130.828674   3691.179409   -476.040533  6  6  7 120       
PG26  -4786.296363 -16129.163414 -20521.693689   -390.198281  9  8  4 118       
PG27 -20988.354434 -12428.622042 -10837.753147    339.333244 15  9 10 139       
PG28 -11137.590457  21000.645554  12490.230571    655.731718  6  6  8 104       
PG29  20136.227531  -5395.516117 -16459.487692    548.613462  7  5  5 120       
PG30  -1650.838196  24445.006562 -10060.744209    133.425755  6  3  6 113       
PG31  -7680.409271 -25149.788711  -1448.179883    167.525954  6  6 10  80       
PG32  -3952.546515 -15975.292687  20883.747726   -515.381335  9  6  6 105       
*  2017 10 20 23 45  0.00000000
PG01 -15838.437580   -859.299454  21212.062937     -5.371527  8  8  7 132       
PG02  14542.704290  21124.931288  -6957.722990    301.376298 10  6  8 127       
PG03 -20543.933432   9828.188045  13611.715933    -53.320136  7 11  8 123       
PG04 -15955.349282 -13230.027030 -17079.498086 999999.999999
PG05  12330.564508   9492.979108 -21622.343855    -25.363567  7  9  6 138       
PG06   6402.897557  25422.957950   4250.617768    405.628371  7  4  5 116       
PG07  -9143.135783  15138.765249 -19475.101994    290.540737  6  9  7  93       
PG08 -25872.083240  -5765.467336  -2389.270491    -77.717706  9 10 11 115       
PG09 -18122.645826   9372.188817 -17040.543503    460.693361  5  8  8 102       
PG10   7916.764895 -22445.534224  11673.077822     93.291347  4  5  7 131       
PG11 -20622.936091  -3642.635923  15704.327629   -722.347535  7  4  6  58       
PG12  19959.393795  -5563.194859  16338.547281    368.284283  8  8  5 127       
PG13  22049.205530  12356.408483  -8235.761599    -93.014714 10  3  8 104       
PG14  -8353.910003 -16205.773704  19651.551229    -86.695957  9  6  8 104       
PG15  26631.489096   2730.853986   -370.967718   -356.748242  8  7  8 120       
PG16 -11229.808410  -9473.380201 -22267.762546     36.831245  8  7  6 100       
PG17  -1834.755630  14867.002286  22308.996965   -149.732969  6  7  2 111       
PG18  14524.520204 -22065.689486   2100.294681    631.654573  9  7  7 137       
PG19   6995.919048  15735.792177  19874.933564   -480.113820  5  6  6  78       
PG20  19594.471810  -6549.742627 -16830.594363    490.324465  8  7  1 115       
PG21   5804.760995 -18595.245807 -17236.146852   -469.413638  8  8  6 121       
PG22 -19124.757409   2193.452973  18551.058941   -161.679497  5 11  5 136       
PG23 -25187.779681   2255.266408  -8539.646473   -218.240054  9  9  8 104       
PG24  17120.679614   3537.746637  19974.381796    -41.163394  7  7  6 120       
PG25  19537.953918 -16530.714902   6510.220472   -476.046203  6  5  7 131       
PG26  -3211.767967 -17795.107712 -19413.317584   -390.187162  9  7  6  75       
PG27 -19623.471684 -12320.339527 -13243.341531    339.336967 16  9  9 139       
PG28 -12098.565107  21725.030835   9976.410707    655.734536  6  6  8 109       
PG29  21801.323892  -4809.859332 -14387.005823    548.609225  7  6  6 126       
PG30  -2245.433776  23261.658913 -12474.008635    133.423576  6  5  6 120       
PG31  -7420.051495 -25235.388521   1440.606362    167.523736  7  7 10  90       
PG32  -1567.877126 -15562.437582  21497.020689   -515.385186  9  6  5 115       
EOF
